[{"OBJECT_NAME":"STARLINK-2481","OBJECT_ID":"2021-027AY","EPOCH":"2026-03-09T14:15:27.294624","MEAN_MOTION":15.30220377,"ECCENTRICITY":0.0001377,"INCLINATION":53.1608,"RA_OF_ASC_NODE":168.2401,"ARG_OF_PERICENTER":84.9717,"MEAN_ANOMALY":275.1441,"EPHEMERIS_TYPE":0,"CLASSIFICATION_TYPE":"U","NORAD_CAT_ID":48138,"ELEMENT_SET_NO":999,"REV_AT_EPOCH":27246,"BSTAR":0.00052293,"MEAN_MOTION_DOT":0.0001517,"MEAN_MOTION_DDOT":0},{"OBJECT_NAME":"VSP RF C1","OBJECT_ID":"2024-043AQ","EPOCH":"2026-03-09T21:56:05.358624","MEAN_MOTION":15.29409663,"ECCENTRICITY":0.00093965,"INCLINATION":97.5441,"RA_OF_ASC_NODE":205.1792,"ARG_OF_PERICENTER":219.6172,"MEAN_ANOMALY":140.4382,"EPHEMERIS_TYPE":0,"CLASSIFICATION_TYPE":"U","NORAD_CAT_ID":59136,"ELEMENT_SET_NO":999,"REV_AT_EPOCH":11190,"BSTAR":0.00026222052,"MEAN_MOTION_DOT":7.409e-5,"MEAN_MOTION_DDOT":0}]
